start=new Date('2022-02-05T00:00:00.000Z').valueOf();
sats=[{"LAUNCH_DATE":"2021-04-29","PERIOD":"95.591","PERIAPSIS":"545.967","TLE_LINE1":"1 48321U 21036AX  22035.78128552  .00000276  00000-0  37439-4 0  9995","COUNTRY_CODE":"US","OBJECT_ID":"2021-036AX","REF_FRAME":"TEME","INCLINATION":"53.0551","CENTER_NAME":"EARTH","GP_ID":"195305495","MEAN_ELEMENT_THEORY":"SGP4","NORAD_CAT_ID":"48321","SEMIMAJOR_AXIS":"6925.303","MEAN_MOTION_DOT":"0.00000276","DECAY_DATE":null,"RA_OF_ASC_NODE":"328.0264","REV_AT_EPOCH":"4345","TLE_LINE2":"2 48321  53.0551 328.0264 0001735  71.7928 288.3250 15.06414718 43455","FILE":"3291974","MEAN_MOTION":"15.06414718","APOAPSIS":"548.370","SITE":"AFETR","TIME_SYSTEM":"UTC","ARG_OF_PERICENTER":"71.7928","CLASSIFICATION_TYPE":"U","OBJECT_TYPE":"PAYLOAD","EPOCH":"2022-02-04T18:45:03.068928","MEAN_ANOMALY":"288.3250","OBJECT_NAME":"STARLINK-2457","RCS_SIZE":"LARGE","ELEMENT_SET_NO":"999","BSTAR":"0.00003743900000","EPHEMERIS_TYPE":"0","ECCENTRICITY":"0.00017350","MEAN_MOTION_DDOT":"0.0000000000000"},{"SITE":"AFETR","APOAPSIS":"548.297","FILE":"3292133","MEAN_MOTION":"15.06402013","REV_AT_EPOCH":"4345","TLE_LINE2":"2 48322  53.0552 328.0394 0001573  66.3668 293.7486 15.06402013 43458","RA_OF_ASC_NODE":"328.0394","DECAY_DATE":null,"MEAN_MOTION_DOT":"-0.00001551","SEMIMAJOR_AXIS":"6925.342","NORAD_CAT_ID":"48322","GP_ID":"195308872","MEAN_ELEMENT_THEORY":"SGP4","CENTER_NAME":"EARTH","INCLINATION":"53.0552","REF_FRAME":"TEME","OBJECT_ID":"2021-036AY","COUNTRY_CODE":"US","TLE_LINE1":"1 48322U 21036AY  22035.77761369 -.00001551  00000-0 -85236-4 0  9991","PERIAPSIS":"546.118","PERIOD":"95.592","LAUNCH_DATE":"2021-04-29","MEAN_MOTION_DDOT":"0.0000000000000","ECCENTRICITY":"0.00015730","EPHEMERIS_TYPE":"0","BSTAR":"-0.00008523600000","ELEMENT_SET_NO":"999","RCS_SIZE":"MEDIUM","OBJECT_NAME":"STARLINK-2477","MEAN_ANOMALY":"293.7486","EPOCH":"2022-02-04T18:39:45.822816","OBJECT_TYPE":"PAYLOAD","CLASSIFICATION_TYPE":"U","ARG_OF_PERICENTER":"66.3668","TIME_SYSTEM":"UTC"},{"EPHEMERIS_TYPE":"0","BSTAR":"0.00042421000000","RCS_SIZE":"LARGE","ELEMENT_SET_NO":"999","OBJECT_NAME":"STARLINK-2515","MEAN_MOTION_DDOT":"0.0000000000000","ECCENTRICITY":"0.00016860","TIME_SYSTEM":"UTC","ARG_OF_PERICENTER":"55.1046","MEAN_ANOMALY":"305.0101","OBJECT_TYPE":"PAYLOAD","EPOCH":"2022-02-04T12:12:17.517312","CLASSIFICATION_TYPE":"U","DECAY_DATE":null,"NORAD_CAT_ID":"48323","SEMIMAJOR_AXIS":"6925.294","MEAN_MOTION_DOT":"0.00006046","GP_ID":"195298990","MEAN_ELEMENT_THEORY":"SGP4","SITE":"AFETR","MEAN_MOTION":"15.06417856","FILE":"3291889","APOAPSIS":"548.326","RA_OF_ASC_NODE":"329.2666","TLE_LINE2":"2 48323  53.0553 329.2666 0001686  55.1046 305.0101 15.06417856 42828","REV_AT_EPOCH":"4282","TLE_LINE1":"1 48323U 21036AZ  22035.50853608  .00006046  00000-0  42421-3 0  9991","PERIAPSIS":"545.991","LAUNCH_DATE":"2021-04-29","PERIOD":"95.591","INCLINATION":"53.0553","CENTER_NAME":"EARTH","OBJECT_ID":"2021-036AZ","REF_FRAME":"TEME","COUNTRY_CODE":"US"},{"CLASSIFICATION_TYPE":"U","OBJECT_TYPE":"PAYLOAD","EPOCH":"2022-02-04T12:06:58.990752","MEAN_ANOMALY":"292.8636","TIME_SYSTEM":"UTC","ARG_OF_PERICENTER":"67.2551","ECCENTRICITY":"0.00018830","MEAN_MOTION_DDOT":"0.0000000000000","OBJECT_NAME":"STARLINK-2527","RCS_SIZE":"LARGE","ELEMENT_SET_NO":"999","BSTAR":"0.00011752000000","EPHEMERIS_TYPE":"0","COUNTRY_CODE":"US","OBJECT_ID":"2021-036BA","REF_FRAME":"TEME","INCLINATION":"53.0543","CENTER_NAME":"EARTH","LAUNCH_DATE":"2021-04-29","PERIOD":"95.592","PERIAPSIS":"545.894","TLE_LINE1":"1 48324U 21036BA  22035.50484943  .00001469  00000-0  11752-3 0  9991","RA_OF_ASC_NODE":"329.2863","TLE_LINE2":"2 48324  53.0543 329.2863 0001883  67.2551 292.8636 15.06405161 42812","REV_AT_EPOCH":"4281","MEAN_MOTION":"15.06405161","FILE":"3291889","APOAPSIS":"548.502","SITE":"AFETR","MEAN_ELEMENT_THEORY":"SGP4","GP_ID":"195300240","NORAD_CAT_ID":"48324","SEMIMAJOR_AXIS":"6925.333","MEAN_MOTION_DOT":"0.00001469","DECAY_DATE":null},{"TLE_LINE1":"1 48325U 21036BB  22035.50116505  .00006689  00000-0  46730-3 0  9991","PERIAPSIS":"545.919","LAUNCH_DATE":"2021-04-29","PERIOD":"95.591","INCLINATION":"53.0550","CENTER_NAME":"EARTH","OBJECT_ID":"2021-036BB","REF_FRAME":"TEME","COUNTRY_CODE":"US","DECAY_DATE":null,"SEMIMAJOR_AXIS":"6925.291","NORAD_CAT_ID":"48325","MEAN_MOTION_DOT":"0.00006689","GP_ID":"195300485","MEAN_ELEMENT_THEORY":"SGP4","SITE":"AFETR","FILE":"3291889","MEAN_MOTION":"15.06418914","APOAPSIS":"548.392","RA_OF_ASC_NODE":"329.3045","REV_AT_EPOCH":"4282","TLE_LINE2":"2 48325  53.0550 329.3045 0001785  56.9277 303.1883 15.06418914 42826","TIME_SYSTEM":"UTC","ARG_OF_PERICENTER":"56.9277","MEAN_ANOMALY":"303.1883","OBJECT_TYPE":"PAYLOAD","CLASSIFICATION_TYPE":"U","EPOCH":"2022-02-04T12:01:40.660320","EPHEMERIS_TYPE":"0","BSTAR":"0.00046730000000","ELEMENT_SET_NO":"999","RCS_SIZE":"LARGE","OBJECT_NAME":"STARLINK-2495","MEAN_MOTION_DDOT":"0.0000000000000","ECCENTRICITY":"0.00017850"},{"EPHEMERIS_TYPE":"0","BSTAR":"-0.00005584100000","OBJECT_NAME":"STARLINK-2498","RCS_SIZE":"LARGE","ELEMENT_SET_NO":"999","MEAN_MOTION_DDOT":"0.0000000000000","ECCENTRICITY":"0.00013810","TIME_SYSTEM":"UTC","ARG_OF_PERICENTER":"79.6580","MEAN_ANOMALY":"280.4564","OBJECT_TYPE":"PAYLOAD","EPOCH":"2022-02-04T18:18:30.604608","CLASSIFICATION_TYPE":"U","DECAY_DATE":null,"SEMIMAJOR_AXIS":"6925.324","NORAD_CAT_ID":"48326","MEAN_MOTION_DOT":"-0.00001113","GP_ID":"195304901","MEAN_ELEMENT_THEORY":"SGP4","SITE":"AFETR","FILE":"3291962","MEAN_MOTION":"15.06407898","APOAPSIS":"548.146","RA_OF_ASC_NODE":"328.1080","TLE_LINE2":"2 48326  53.0552 328.1080 0001381  79.6580 280.4564 15.06407898 43458","REV_AT_EPOCH":"4345","TLE_LINE1":"1 48326U 21036BC  22035.76285422 -.00001113  00000-0 -55841-4 0  9998","PERIAPSIS":"546.233","LAUNCH_DATE":"2021-04-29","PERIOD":"95.592","INCLINATION":"53.0552","CENTER_NAME":"EARTH","OBJECT_ID":"2021-036BC","REF_FRAME":"TEME","COUNTRY_CODE":"US"},{"TLE_LINE1":"1 48327U 21036BD  22035.22841302  .00012678  00000-0  86801-3 0  9990","PERIAPSIS":"545.973","PERIOD":"95.591","LAUNCH_DATE":"2021-04-29","CENTER_NAME":"EARTH","INCLINATION":"53.0555","REF_FRAME":"TEME","OBJECT_ID":"2021-036BD","COUNTRY_CODE":"US","DECAY_DATE":null,"MEAN_MOTION_DOT":"0.00012678","NORAD_CAT_ID":"48327","SEMIMAJOR_AXIS":"6925.287","GP_ID":"195299490","MEAN_ELEMENT_THEORY":"SGP4","SITE":"AFETR","APOAPSIS":"548.331","FILE":"3291889","MEAN_MOTION":"15.06420100","TLE_LINE2":"2 48327  53.0555 330.5055 0001702  68.0072 292.1097 15.06420100 42783","REV_AT_EPOCH":"4278","RA_OF_ASC_NODE":"330.5055","TIME_SYSTEM":"UTC","ARG_OF_PERICENTER":"68.0072","MEAN_ANOMALY":"292.1097","OBJECT_TYPE":"PAYLOAD","CLASSIFICATION_TYPE":"U","EPOCH":"2022-02-04T05:28:54.884928","EPHEMERIS_TYPE":"0","BSTAR":"0.00086801000000","RCS_SIZE":"LARGE","ELEMENT_SET_NO":"999","OBJECT_NAME":"STARLINK-2502","MEAN_MOTION_DDOT":"0.0000000000000","ECCENTRICITY":"0.00017020"},{"ELEMENT_SET_NO":"999","RCS_SIZE":"LARGE","OBJECT_NAME":"STARLINK-2504","EPHEMERIS_TYPE":"0","BSTAR":"0.00021135000000","ECCENTRICITY":"0.00019000","MEAN_MOTION_DDOT":"0.0000000000000","ARG_OF_PERICENTER":"68.8570","TIME_SYSTEM":"UTC","OBJECT_TYPE":"PAYLOAD","CLASSIFICATION_TYPE":"U","EPOCH":"2022-02-04T18:07:54.386976","MEAN_ANOMALY":"291.2621","SEMIMAJOR_AXIS":"6925.276","NORAD_CAT_ID":"48328","MEAN_MOTION_DOT":"0.00002870","MEAN_ELEMENT_THEORY":"SGP4","GP_ID":"195308469","DECAY_DATE":null,"FILE":"3292099","MEAN_MOTION":"15.06423649","APOAPSIS":"548.457","RA_OF_ASC_NODE":"328.1444","TLE_LINE2":"2 48328  53.0557 328.1444 0001900  68.8570 291.2621 15.06423649 43451","REV_AT_EPOCH":"4345","SITE":"AFETR","PERIAPSIS":"545.825","LAUNCH_DATE":"2021-04-29","PERIOD":"95.591","TLE_LINE1":"1 48328U 21036BE  22035.75549059  .00002870  00000-0  21135-3 0  9995","OBJECT_ID":"2021-036BE","REF_FRAME":"TEME","COUNTRY_CODE":"US","INCLINATION":"53.0557","CENTER_NAME":"EARTH"},{"PERIAPSIS":"546.058","PERIOD":"95.591","LAUNCH_DATE":"2021-04-29","TLE_LINE1":"1 48329U 21036BF  22035.22103990  .00007210  00000-0  50223-3 0  9991","REF_FRAME":"TEME","OBJECT_ID":"2021-036BF","COUNTRY_CODE":"US","CENTER_NAME":"EARTH","INCLINATION":"53.0562","MEAN_MOTION_DOT":"0.00007210","NORAD_CAT_ID":"48329","SEMIMAJOR_AXIS":"6925.308","GP_ID":"195299986","MEAN_ELEMENT_THEORY":"SGP4","DECAY_DATE":null,"APOAPSIS":"548.287","FILE":"3291889","MEAN_MOTION":"15.06413320","TLE_LINE2":"2 48329  53.0562 330.5518 0001609  61.6604 298.4547 15.06413320 42788","REV_AT_EPOCH":"4278","RA_OF_ASC_NODE":"330.5518","SITE":"AFETR","ARG_OF_PERICENTER":"61.6604","TIME_SYSTEM":"UTC","CLASSIFICATION_TYPE":"U","OBJECT_TYPE":"PAYLOAD","EPOCH":"2022-02-04T05:18:17.847360","MEAN_ANOMALY":"298.4547","ELEMENT_SET_NO":"999","RCS_SIZE":"LARGE","OBJECT_NAME":"STARLINK-2510","EPHEMERIS_TYPE":"0","BSTAR":"0.00050223000000","ECCENTRICITY":"0.00016090","MEAN_MOTION_DDOT":"0.0000000000000"},{"TIME_SYSTEM":"UTC","ARG_OF_PERICENTER":"57.9899","MEAN_ANOMALY":"302.1243","OBJECT_TYPE":"PAYLOAD","CLASSIFICATION_TYPE":"U","EPOCH":"2022-02-04T17:57:17.957664","EPHEMERIS_TYPE":"0","BSTAR":"0.00058155000000","RCS_SIZE":"LARGE","ELEMENT_SET_NO":"999","OBJECT_NAME":"STARLINK-2501","MEAN_MOTION_DDOT":"0.0000000000000","ECCENTRICITY":"0.00015820","TLE_LINE1":"1 48330U 21036BG  22035.74812451  .00008397  00000-0  58155-3 0  9998","PERIAPSIS":"546.044","LAUNCH_DATE":"2021-04-29","PERIOD":"95.591","INCLINATION":"53.0550","CENTER_NAME":"EARTH","OBJECT_ID":"2021-036BG","REF_FRAME":"TEME","COUNTRY_CODE":"US","DECAY_DATE":null,"SEMIMAJOR_AXIS":"6925.275","NORAD_CAT_ID":"48330","MEAN_MOTION_DOT":"0.00008397","GP_ID":"195307164","MEAN_ELEMENT_THEORY":"SGP4","SITE":"AFETR","FILE":"3292055","MEAN_MOTION":"15.06424041","APOAPSIS":"548.235","RA_OF_ASC_NODE":"328.1944","TLE_LINE2":"2 48330  53.0550 328.1944 0001582  57.9899 302.1243 15.06424041 43450","REV_AT_EPOCH":"4345"}];
